[
    {
        "Altitude(m)": 622205.8498858386,
        "Argument of Periapsis(deg)": 0.0,
        "Eccentricity": 0.0,
        "Inclination(deg)": 60.0,
        "Latitude(deg)": -52.1623868257413,
        "Longitude(deg)": 32.70053203375103,
        "Mean Anomaly(deg)": -114.54549999999998,
        "RAAN(deg)": 265.0,
        "Satellite Name": "Test1 1181",
        "Satellite Number": 1181,
        "Semi-Major Axis(m)": 6980739.136638005,
        "Time(s)": 0
    },
    {
        "Altitude(m)": 622344.7559573087,
        "Argument of Periapsis(deg)": 0.00010418945913296404,
        "Eccentricity": 0.0,
        "Inclination(deg)": 60.0,
        "Latitude(deg)": -52.51996496463024,
        "Longitude(deg)": 33.48174531309746,
        "Mean Anomaly(deg)": -113.9253938545381,
        "RAAN(deg)": 264.99957995086027,
        "Satellite Name": "Test1 1181",
        "Satellite Number": 1181,
        "Semi-Major Axis(m)": 6980739.136638005,
        "Time(s)": 10
    }
]